KUIPER-00176            
1 65788U 25217AC  25364.16670139 -.00036590  00000+0 -46175-2 0  9993
2 65788  51.9005 350.5583 0000473 354.0900 202.6018 14.81523744  2730
KUIPER-00101            
1 65947U 25228A   25364.16670139 -.00009292  00000+0 -11899-2 0  9996
2 65947  51.8985 308.0231 0000480  22.2702 122.2200 14.79992701  5646
KUIPER-00113            
1 65948U 25228B   25364.16670139 -.00138511  00000+0 -15275-1 0  9995
2 65948  51.9134 303.3518 0006220  89.4369  54.5733 14.87837801  5682
KUIPER-00117            
1 65949U 25228C   25364.16670139 -.00011638  00000+0 -14109-2 0  9992
2 65949  51.8982 305.6012 0004454  91.9158   8.0380 14.82467790  3566
KUIPER-00121            
1 65950U 25228D   25364.16670139 -.01085721  00000+0 -10761+0 0  9996
2 65950  51.8928 300.7999 0004690 110.3903  18.0477 14.94581674  2315
KUIPER-00122            
1 65951U 25228E   25364.17069896  .00017623  00000+0  23335-2 0  9997
2 65951  51.9007 310.4954 0001035  59.9456 300.1609 14.79953189 12900
KUIPER-00123            
1 65952U 25228F   25364.13688472  .00009017  00000+0  12108-2 0  9995
2 65952  51.8986 310.6692 0001183  89.6001 270.5097 14.79909718 12895
KUIPER-00124            
1 65953U 25228G   25364.16670139 -.00009545  00000+0 -11684-2 0  9996
2 65953  51.8982 303.0582 0000517 110.0742 347.6358 14.81886744  5385
